H1 CPF 01  gfz 2022 09 05 12  7482 terrasarx 
H2 0702601  6201 31698    2022 09 05 12 59 42 2022 09 10 00 00 42   120 1 1  0 0 0
H9
10 0 59829  23022.000000  0    5841365.109    -87584.413   3642030.408
10 0 59829  23142.000000  0    6262919.896   -287833.944   2846973.006
10 0 59829  23262.000000  0    6571458.978   -489440.293   2001785.531
10 0 59829  23382.000000  0    6761611.176   -686853.491   1121349.133
10 0 59829  23502.000000  0    6830192.453   -874524.140    221170.020
10 0 59829  23622.000000  0    6776263.986  -1047040.870   -682902.143
10 0 59829  23742.000000  0    6601142.714  -1199266.154  -1574963.007
10 0 59829  23862.000000  0    6308366.941  -1326466.087  -2439341.626
10 0 59829  23982.000000  0    5903617.078  -1424431.240  -3260882.331
10 0 59829  24102.000000  0    5394595.148  -1489585.554  -4025213.760
10 0 59829  24222.000000  0    4790866.477  -1519080.193  -4719000.023
10 0 59829  24342.000000  0    4103668.687  -1510870.823  -5330169.582
10 0 59829  24462.000000  0    3345692.015  -1463777.580  -5848118.449
10 0 59829  24582.000000  0    2530836.928  -1377525.689  -6263883.718
10 0 59829  24702.000000  0    1673955.811  -1252765.728  -6570287.616
10 0 59829  24822.000000  0     790581.513  -1091074.249  -6762050.842
10 0 59829  24942.000000  0    -103351.316   -894935.776  -6835873.912
10 0 59829  25062.000000  0    -991788.204   -667705.009  -6790487.332
10 0 59829  25182.000000  0   -1858836.328   -413550.707  -6626671.391
10 0 59829  25302.000000  0   -2689042.764   -137380.967  -6347243.454
10 0 59829  25422.000000  0   -3467663.322    155247.876  -5957014.003
10 0 59829  25542.000000  0   -4180921.114    458238.465  -5462713.857
10 0 59829  25662.000000  0   -4816251.565    765073.822  -4872888.577
10 0 59829  25782.000000  0   -5362528.191   1068950.907  -4197763.239
10 0 59829  25902.000000  0   -5810266.819   1362925.865  -3449075.980
10 0 59829  26022.000000  0   -6151800.943   1640066.292  -2639881.692
10 0 59829  26142.000000  0   -6381425.161   1893607.159  -1784329.225
10 0 59829  26262.000000  0   -6495503.031   2117107.614   -897415.246
10 0 59829  26382.000000  0   -6492535.214   2304604.320      5282.235
10 0 59829  26502.000000  0   -6373184.525   2450756.796    907884.354
10 0 59829  26622.000000  0   -6140257.150   2550981.903   1794498.737
10 0 59829  26742.000000  0   -5798640.646   2601573.806   2649508.619
10 0 59829  26862.000000  0   -5355199.722   2599805.371   3457856.241
10 0 59829  26982.000000  0   -4818633.151   2544008.340   4205315.324
10 0 59829  27102.000000  0   -4199294.751   2433630.749   4878744.877
10 0 59829  27222.000000  0   -3508985.583   2269270.888   5466320.265
10 0 59829  27342.000000  0   -2760721.666   2052687.454   5957739.237
10 0 59829  27462.000000  0   -1968480.741   1786785.214   6344399.027
10 0 59829  27582.000000  0   -1146935.102   1475576.177   6619541.043
10 0 59829  27702.000000  0    -311176.560   1124117.885   6778361.529
10 0 59829  27822.000000  0     523560.585    738430.155   6818089.482
10 0 59829  27942.000000  0    1342176.270    325391.656   6738031.836
10 0 59829  28062.000000  0    2129976.422   -107382.082   6539584.761
10 0 59829  28182.000000  0    2872935.816   -551678.291   6226211.893
10 0 59829  28302.000000  0    3557948.961   -998841.724   5803388.445
10 0 59829  28422.000000  0    4173064.736  -1439941.911   5278510.968
10 0 59829  28542.000000  0    4707699.257  -1865950.942   4660773.531
10 0 59829  28662.000000  0    5152824.632  -2267927.332   3961012.957
10 0 59829  28782.000000  0    5501130.702  -2637203.448   3191522.729
10 0 59829  28902.000000  0    5747153.129  -2965571.906   2365836.804
10 0 59829  29022.000000  0    5887364.732  -3245466.058   1498489.805
10 0 59829  29142.000000  0    5920230.202  -3470131.339    604757.067
10 0 59829  29262.000000  0    5846219.671  -3633781.637   -299622.207
10 0 59829  29382.000000  0    5667782.587  -3731737.286  -1198730.464
10 0 59829  29502.000000  0    5389280.223  -3760540.173  -2076761.911
10 0 59829  29622.000000  0    5016880.130  -3718043.398  -2918307.369
10 0 59829  29742.000000  0    4558416.053  -3603474.732  -3708629.701
10 0 59829  29862.000000  0    4023216.491  -3417471.357  -4433923.561
10 0 59829  29982.000000  0    3421907.213  -3162085.931  -5081554.555
10 0 59829  30102.000000  0    2766192.982  -2840763.562  -5640272.977
10 0 59829  30222.000000  0    2068625.184  -2458292.906  -6100399.066
10 0 59829  30342.000000  0    1342360.175  -2020732.664  -6453980.882
10 0 59829  30462.000000  0     600910.566  -1535312.191  -6694922.171
10 0 59829  30582.000000  0    -142104.043  -1010310.303  -6819076.481
10 0 59829  30702.000000  0    -873202.371   -454915.228  -6824309.908
10 0 59829  30822.000000  0   -1579280.042    120932.838  -6710533.511
10 0 59829  30942.000000  0   -2247839.270    706715.365  -6479703.979
10 0 59829  31062.000000  0   -2867204.859   1291522.461  -6135793.404
10 0 59829  31182.000000  0   -3426724.644   1864250.954  -5684728.714
10 0 59829  31302.000000  0   -3916953.267   2413811.192  -5134301.079
10 0 59829  31422.000000  0   -4329816.045   2929340.141  -4494042.774
10 0 59829  31542.000000  0   -4658747.691   3400415.791  -3775071.863
10 0 59829  31662.000000  0   -4898803.480   3817268.936  -2989908.955
10 0 59829  31782.000000  0   -5046741.353   4170988.544  -2152265.682
10 0 59829  31902.000000  0   -5101071.244   4453714.482  -1276808.184
10 0 59829  32022.000000  0   -5062071.109   4658813.958   -378899.471
10 0 59829  32142.000000  0   -4931767.067   4781036.386    525675.174
10 0 59829  32262.000000  0   -4713877.680   4816641.902   1420993.888
10 0 59829  32382.000000  0   -4413723.566   4763498.669   2291288.271
10 0 59829  32502.000000  0   -4038103.444   4621147.971   3121230.197
10 0 59829  32622.000000  0   -3595141.286   4390835.159   3896208.797
10 0 59829  32742.000000  0   -3094109.385   4075505.840   4602592.328
10 0 59829  32862.000000  0   -2545231.432   3679768.027   5227970.586
10 0 59829  32982.000000  0   -1959469.571   3209820.520   5761372.489
10 0 59829  33102.000000  0   -1348301.338   2673350.134   6193454.966
10 0 59829  33222.000000  0    -723491.452   2079399.937   6516660.480
10 0 59829  33342.000000  0     -96865.166   1438212.791   6725341.690
10 0 59829  33462.000000  0     519915.170    761052.425   6815855.285
10 0 59829  33582.000000  0    1115566.684     60004.817   6786620.805
10 0 59829  33702.000000  0    1679391.117   -652236.510   6638146.839
10 0 59829  33822.000000  0    2201466.391  -1362599.867   6373023.353
10 0 59829  33942.000000  0    2672821.457  -2057874.332   5995879.906
10 0 59829  34062.000000  0    3085592.820  -2724956.035   5513310.406
10 0 59829  34182.000000  0    3433158.546  -3351096.676   4933763.323
10 0 59829  34302.000000  0    3710247.982  -3924150.412   4267399.864
10 0 59829  34422.000000  0    3913025.677  -4432814.254   3525920.246
10 0 59829  34542.000000  0    4039146.067  -4866856.789   2722360.139
10 0 59829  34662.000000  0    4087778.446  -5217329.869   1870860.820
10 0 59829  34782.000000  0    4059601.013  -5476757.598    986416.380
10 0 59829  34902.000000  0    3956763.359  -5639297.367     84603.136
10 0 59829  35022.000000  0    3782819.559  -5700869.360   -818701.562
10 0 59829  35142.000000  0    3542632.476  -5659252.254  -1707608.487
10 0 59829  35262.000000  0    3242250.832  -5514139.583  -2566504.284
10 0 59829  35382.000000  0    2888764.678  -5267158.286  -3380332.105
10 0 59829  35502.000000  0    2490140.893  -4921847.723  -4134859.743
10 0 59829  35622.000000  0    2055043.880  -4483600.775  -4816928.068
10 0 59829  35742.000000  0    1592647.293  -3959569.401  -5414675.677
10 0 59829  35862.000000  0    1112442.001  -3358538.231  -5917736.779
10 0 59829  35982.000000  0     624042.784  -2690770.137  -6317410.692
10 0 59829  36102.000000  0     136997.820  -1967826.238  -6606801.400
10 0 59829  36222.000000  0    -339394.471  -1202363.442  -6780925.615
10 0 59829  36342.000000  0    -796257.999   -407913.849  -6836789.579
10 0 59829  36462.000000  0   -1225299.756    401350.604  -6773434.377
10 0 59829  36582.000000  0   -1618956.918   1210864.469  -6591949.815
10 0 59829  36702.000000  0   -1970526.933   2005924.438  -6295457.594
10 0 59829  36822.000000  0   -2274279.734   2771949.699  -5889064.018
10 0 59829  36942.000000  0   -2525551.500   3494745.887  -5379781.997
10 0 59829  37062.000000  0   -2720817.230   4160767.220  -4776421.418
10 0 59829  37182.000000  0   -2857742.099   4757373.489  -4089448.010
10 0 59829  37302.000000  0   -2935208.749   5273075.232  -3330810.389
10 0 59829  37422.000000  0   -2953319.586   5697761.055  -2513739.915
10 0 59829  37542.000000  0   -2913375.485   6022905.641  -1652525.903
10 0 59829  37662.000000  0   -2817828.910   6241750.922   -762265.435
10 0 59829  37782.000000  0   -2670212.915   6349452.921    141403.694
10 0 59829  37902.000000  0   -2475049.492   6343196.009   1042582.759
10 0 59829  38022.000000  0   -2237734.923   6222265.499   1925403.579
10 0 59829  38142.000000  0   -1964405.989   5988074.285   2774317.986
10 0 59829  38262.000000  0   -1661792.824   5644147.130   3574379.032
10 0 59829  38382.000000  0   -1337062.027   5196063.514   4311509.462
10 0 59829  38502.000000  0    -997653.678   4651359.950   4972753.181
10 0 59829  38622.000000  0    -651114.209   4019393.480   5546503.503
10 0 59829  38742.000000  0    -304932.230   3311172.406   6022703.413
10 0 59829  38862.000000  0      33619.870   2539156.069   6393017.767
10 0 59829  38982.000000  0     357635.908   1717029.633   6650972.533
10 0 59829  39102.000000  0     660714.688    859457.718   6792062.536
10 0 59829  39222.000000  0     937084.672    -18178.993   6813824.259
10 0 59829  39342.000000  0    1181712.686   -900058.275   6715876.509
10 0 59829  39462.000000  0    1390395.223  -1770201.290   6499927.543
99
